{
  "type": "FeatureCollection",
  "features": [
    {
      "type": "Feature",
      "properties": {
        "norad_id": 19071,
        "name": "OSCAR 32",
        "group": "nnss",
        "lat": 10.34020184021632,
        "lon": 16.902218807007724,
        "alt_km": 1219.4469663463833,
        "timestamp": "2025-12-26T19:22:39.175447+00:00",
        "meta_object_name": "OSCAR 32",
        "meta_object_id": "1988-033B",
        "meta_epoch": "2025-12-26T10:53:58.879680",
        "meta_mean_motion": 13.27955937,
        "meta_eccentricity": 0.01893107,
        "meta_inclination": 90.3209,
        "meta_ra_of_asc_node": 16.9498,
        "meta_arg_of_pericenter": 128.8267,
        "meta_mean_anomaly": 355.8113,
        "meta_ephemeris_type": 0,
        "meta_classification_type": "U",
        "meta_norad_cat_id": 19071,
        "meta_element_set_no": 999,
        "meta_rev_at_epoch": 82447,
        "meta_bstar": 0.0001395573,
        "meta_mean_motion_dot": 7.9e-07,
        "meta_mean_motion_ddot": 0,
        "tle_line1": "1 19071U 88033B   25360.45415370  .00000079  00000+0  13956-3 0  9997",
        "tle_line2": "2 19071  90.3209  16.9498 0189310 128.8267 355.8113 13.27955937824478"
      },
      "geometry": {
        "type": "Point",
        "coordinates": [
          16.902218807007724,
          10.34020184021632
        ]
      }
    },
    {
      "type": "Feature",
      "properties": {
        "norad_id": 19223,
        "name": "NOVA 2",
        "group": "nnss",
        "lat": -44.37946152355697,
        "lon": 78.2412026427776,
        "alt_km": 1159.6450769922076,
        "timestamp": "2025-12-26T19:22:39.175457+00:00",
        "meta_object_name": "NOVA 2",
        "meta_object_id": "1988-052A",
        "meta_epoch": "2025-12-26T12:23:46.849344",
        "meta_mean_motion": 13.22937569,
        "meta_eccentricity": 0.00294231,
        "meta_inclination": 89.9863,
        "meta_ra_of_asc_node": 78.255,
        "meta_arg_of_pericenter": 338.6148,
        "meta_mean_anomaly": 32.6671,
        "meta_ephemeris_type": 0,
        "meta_classification_type": "U",
        "meta_norad_cat_id": 19223,
        "meta_element_set_no": 999,
        "meta_rev_at_epoch": 81130,
        "meta_bstar": 0.00012017844,
        "meta_mean_motion_dot": 5.9e-07,
        "meta_mean_motion_ddot": 0,
        "tle_line1": "1 19223U 88052A   25360.51651446  .00000059  00000+0  12018-3 0  9996",
        "tle_line2": "2 19223  89.9863  78.2550 0029423 338.6148  32.6671 13.22937569811307"
      },
      "geometry": {
        "type": "Point",
        "coordinates": [
          78.2412026427776,
          -44.37946152355697
        ]
      }
    },
    {
      "type": "Feature",
      "properties": {
        "norad_id": 19419,
        "name": "OSCAR 25",
        "group": "nnss",
        "lat": -51.28372240908065,
        "lon": 20.331385864598953,
        "alt_km": 1122.6064417550506,
        "timestamp": "2025-12-26T19:22:39.175470+00:00",
        "meta_object_name": "OSCAR 25",
        "meta_object_id": "1988-074A",
        "meta_epoch": "2025-12-26T13:18:28.068192",
        "meta_mean_motion": 13.42625822,
        "meta_eccentricity": 0.00953169,
        "meta_inclination": 90.0336,
        "meta_ra_of_asc_node": 20.2886,
        "meta_arg_of_pericenter": 205.9306,
        "meta_mean_anomaly": 320.1104,
        "meta_ephemeris_type": 0,
        "meta_classification_type": "U",
        "meta_norad_cat_id": 19419,
        "meta_element_set_no": 999,
        "meta_rev_at_epoch": 82825,
        "meta_bstar": 0.00014338017,
        "meta_mean_motion_dot": 9.2e-07,
        "meta_mean_motion_ddot": 0,
        "tle_line1": "1 19419U 88074A   25360.55449153  .00000092  00000+0  14338-3 0  9995",
        "tle_line2": "2 19419  90.0336  20.2886 0095316 205.9306 320.1104 13.42625822828253"
      },
      "geometry": {
        "type": "Point",
        "coordinates": [
          20.331385864598953,
          -51.28372240908065
        ]
      }
    },
    {
      "type": "Feature",
      "properties": {
        "norad_id": 19420,
        "name": "OSCAR 31",
        "group": "nnss",
        "lat": -9.466551230215334,
        "lon": -159.36410338220819,
        "alt_km": 1034.7077002086162,
        "timestamp": "2025-12-26T19:22:39.175493+00:00",
        "meta_object_name": "OSCAR 31",
        "meta_object_id": "1988-074B",
        "meta_epoch": "2025-12-26T11:51:56.301696",
        "meta_mean_motion": 13.42586778,
        "meta_eccentricity": 0.00937157,
        "meta_inclination": 90.0354,
        "meta_ra_of_asc_node": 20.6407,
        "meta_arg_of_pericenter": 200.2518,
        "meta_mean_anomaly": 277.3694,
        "meta_ephemeris_type": 0,
        "meta_classification_type": "U",
        "meta_norad_cat_id": 19420,
        "meta_element_set_no": 999,
        "meta_rev_at_epoch": 82835,
        "meta_bstar": 0.00010498182,
        "meta_mean_motion_dot": 7e-07,
        "meta_mean_motion_ddot": 0,
        "tle_line1": "1 19420U 88074B   25360.49440164  .00000070  00000+0  10498-3 0  9992",
        "tle_line2": "2 19420  90.0354  20.6407 0093715 200.2518 277.3694 13.42586778828356"
      },
      "geometry": {
        "type": "Point",
        "coordinates": [
          -159.36410338220819,
          -9.466551230215334
        ]
      }
    }
  ]
}